BEIDOU-3S IGSO-1S       
1 40549U 15019A   26183.80025122 -.00000190  00000+0  00000+0 0  9997
2 40549  49.1798 295.2769 0076860 219.1125 144.2493  1.00680073 41232
NAVSTAR 74 (USA 262)    
1 40730U 15033A   26191.65513425  .00000009  00000+0  00000+0 0  9993
2 40730  53.9645 266.1181 0115278  30.2840 330.4468  2.00555009 80466
BEIDOU-3S M2S           
1 40748U 15037A   26191.41220186 -.00000067  00000+0  00000+0 0  9994
2 40748  54.8489 301.2473 0009273 257.2247 102.6907  1.86232238 74554
BEIDOU-3S M1S           
1 40749U 15037B   26190.00611867 -.00000066  00000+0  00000+0 0  9998
2 40749  54.8466 301.2825 0002899  63.4682 296.5816  1.86254781 74535
GSAT0206 (GALILEO 10)   
1 40890U 15045B   26188.98768849  .00000082  00000+0  00000+0 0  9998
2 40890  54.9404 221.0297 0001927 331.1596  28.9023  1.70473579 67391
BEIDOU-3S IGSO-2S       
1 40938U 15053A   26191.65671527 -.00000097  00000+0  00000+0 0  9991
2 40938  49.1849 258.5030 0066299 193.1118 167.0935  1.00254238 39592
NAVSTAR 75 (USA 265)    
1 41019U 15062A   26191.21161638 -.00000050  00000+0  00000+0 0  9990
2 41019  56.9748  29.9248 0112642 230.9097 128.1346  2.00566916 78292
GSAT-15                 
1 41028U 15065A   26191.88378053  .00000000  00000+0  00000+0 0  9991
2 41028   0.0207  30.3985 0003570  61.2075 248.8659  1.00269735 39030
GSAT0209 (GALILEO 12)   
1 41174U 15079A   26189.15594789 -.00000008  00000+0  00000+0 0  9990
2 41174  55.8390 100.6867 0004997 350.6288   9.3765  1.70473596 65135
GSAT0208 (GALILEO 11)   
1 41175U 15079B   26189.37634046 -.00000009  00000+0  00000+0 0  9997
2 41175  55.8379 100.6775 0004423  15.9812 344.0466  1.70473357 65557
IRNSS-1E                
1 41241U 16003A   26191.58253116 -.00000316  00000+0  00000+0 0  9991
2 41241  33.2836  59.4106 0019285 178.7449  11.7354  1.00267797 38314
NAVSTAR 76 (USA 266)    
1 41328U 16007A   26189.80752889 -.00000030  00000+0  00000+0 0  9997
2 41328  55.5370  88.6024 0096602 247.6357 111.3718  2.00575699 76277
COSMOS 2514 [GLONASS-M] 
1 41330U 16008A   26191.27891756 -.00000060  00000+0  00000+0 0  9995
2 41330  65.0065 312.2143 0012149 200.5836 159.3748  2.13102592 81115
BEIDOU-2 IGSO-6         
1 41434U 16021A   26177.11016981 -.00000145  00000+0  00000+0 0  9995
2 41434  60.2385  37.9495 0057558 231.0163 137.2672  1.00258926 37578
IRNSS-1G                
1 41469U 16027A   26191.66388205 -.00000330  00000+0  00000+0 0  9992
2 41469   5.2518  96.9305 0005973   9.4769 190.8393  1.00273408 37411
GSAT0211 (GALILEO 14)   
1 41549U 16030A   26191.25975114  .00000090  00000+0  00000+0 0  9993
2 41549  55.0907 221.0599 0003340 318.2184  41.8356  1.70473716 63064
GSAT0210 (GALILEO 13)   
1 41550U 16030B   26190.93041336  .00000089  00000+0  00000+0 0  9997
2 41550  55.0899 221.0670 0004683 245.4873 114.5425  1.70474002 63056
BEIDOU-2 G7             
1 41586U 16037A   26191.80263977 -.00000345  00000+0  00000+0 0  9993
2 41586   1.7755  69.5190 0006003   7.0558 251.4830  1.00263892  7129
EUTELSAT 117 WEST B     
1 41589U 16038B   26191.25856476 -.00000001  00000+0  00000+0 0  9997
2 41589   0.0062 158.6562 0000353 302.6110 163.0106  1.00273613 36890
GSAT0207 (GALILEO 15)   
1 41859U 16069A   26190.03578203 -.00000014  00000+0  00000+0 0  9999
2 41859  55.5102 100.4816 0004251 344.5564  15.4422  1.70473324 59777
GSAT0212 (GALILEO 16)   
1 41860U 16069B   26188.12942102 -.00000003  00000+0  00000+0 0  9999
2 41860  55.5076 100.5296 0004380   9.6218 350.4046  1.70473650 59990
GSAT0213 (GALILEO 17)   
1 41861U 16069C   26191.42949498 -.00000024  00000+0  00000+0 0  9995
2 41861  55.5116 100.4460 0004394 317.3165  42.6580  1.70474095 59912
GSAT0214 (GALILEO 18)   
1 41862U 16069D   26187.46967801 -.00000001  00000+0  00000+0 0  9998
2 41862  55.5080 100.5485 0003807 326.3091  33.6861  1.70473830 59971
SES-15                  
1 42709U 17026A   26191.68390214  .00000070  00000+0  00000+0 0  9995
2 42709   0.0246 328.6287 0000310 127.6738 309.3350  1.00266789  7661
QZS-2 (MICHIBIKI-2)     
1 42738U 17028A   26191.45600380 -.00000091  00000+0  00000+0 0  9996
2 42738  39.3930 242.8106 0757969 269.5457  82.5332  1.00277951  7863
QZS-3 (MICHIBIKI-3)     
1 42917U 17048A   26191.80593311 -.00000339  00000+0  00000+0 0  9996
2 42917   0.0728 218.4433 0002512 265.9772 221.4494  1.00274343 32493
COSMOS 2522 [GLONASS-M] 
1 42939U 17055A   26191.11660740  .00000122  00000+0  00000+0 0  9992
2 42939  64.0805 191.1038 0010910 240.8947 119.0275  2.13101919 68466
QZS-4 (MICHIBIKI-4)     
1 42965U 17062A   26190.74072012 -.00000315  00000+0  00000+0 0  9991
2 42965  40.0954 343.1995 0747415 268.4439  81.4735  1.00291716 32020
BEIDOU-3 M1             
1 43001U 17069A   26191.22216100 -.00000046  00000+0  00000+0 0  9993
2 43001  56.7113  62.3268 0009352 328.6269  31.3803  1.86231228 59033
BEIDOU-3 M2             
1 43002U 17069B   26191.16097920 -.00000046  00000+0  00000+0 0  9994
2 43002  56.7107  62.3639 0008255 357.9796   2.0799  1.86230592 59021
GSAT0215 (GALILEO 19)   
1 43055U 17079A   26190.30564403  .00000088  00000+0  00000+0 0  9998
2 43055  55.0687 220.8977 0003623 268.5833  91.4517  1.70474298 53360
